[{"OBJECT_NAME":"STARLINK-4252","OBJECT_ID":"2022-077Q","EPOCH":"2026-03-09T22:40:46.889760","MEAN_MOTION":15.05655199,"ECCENTRICITY":0.00015341,"INCLINATION":97.6027,"RA_OF_ASC_NODE":251.553,"ARG_OF_PERICENTER":69.2175,"MEAN_ANOMALY":290.9216,"EPHEMERIS_TYPE":0,"CLASSIFICATION_TYPE":"U","NORAD_CAT_ID":53057,"ELEMENT_SET_NO":999,"REV_AT_EPOCH":20102,"BSTAR":-2.0556285e-5,"MEAN_MOTION_DOT":-3.57e-6,"MEAN_MOTION_DDOT":0},{"OBJECT_NAME":"GB 2","OBJECT_ID":"1983-056D","EPOCH":"2026-03-09T14:43:25.991328","MEAN_MOTION":13.78053489,"ECCENTRICITY":0.0732375,"INCLINATION":63.3116,"RA_OF_ASC_NODE":172.1265,"ARG_OF_PERICENTER":130.2163,"MEAN_ANOMALY":236.5364,"EPHEMERIS_TYPE":0,"CLASSIFICATION_TYPE":"U","NORAD_CAT_ID":14144,"ELEMENT_SET_NO":999,"REV_AT_EPOCH":34222,"BSTAR":0.0006089,"MEAN_MOTION_DOT":4.982e-5,"MEAN_MOTION_DDOT":0}]
